ONEWEB-0349             
1 49281U 21090C   25074.52039404  .00000160  00000+0  36284-3 0  9993
2 49281  87.9334   5.7307 0001974  80.9762 279.1594 13.20774185169286
ONEWEB-0353             
1 49282U 21090D   25074.90552353  .00000293  00000+0  75526-3 0  9998
2 49282  87.9073  20.8301 0002199  80.7805 279.3573 13.14505444168668
ONEWEB-0356             
1 49283U 21090E   25074.82183590  .00000010  00000+0 -69640-5 0  9993
2 49283  87.9335   5.6629 0001988 107.7039 252.4312 13.20774706170615
ONEWEB-0358             
1 49284U 21090F   25074.54880803  .00000077  00000+0  15692-3 0  9992
2 49284  87.9334   5.7064 0001708  84.3627 275.7701 13.20773077170016
ONEWEB-0359             
1 49285U 21090G   25074.54565715  .00000039  00000+0  63171-4 0  9999
2 49285  87.9333   5.7208 0001479  74.7103 285.4194 13.20772993169998
ONEWEB-0360             
1 49286U 21090H   25074.53618636  .00000100  00000+0  21375-3 0  9998
2 49286  87.9333   5.7282 0001727  77.2706 282.8620 13.20771939169303
ONEWEB-0361             
1 49287U 21090J   25074.51723234 -.00000118  00000+0 -32198-3 0  9994
2 49287  87.9334   5.7271 0001892  84.2560 275.8789 13.20771939169759
ONEWEB-0362             
1 49288U 21090K   25074.40982722  .00000030  00000+0  42329-4 0  9991
2 49288  87.9214  36.1706 0001922  74.1769 285.9576 13.19726790166409
